{"type": "FeatureCollection", "features": [ {"type": "Feature", "properties": {"norad_id": 66583, "name": "STARLINK-35941", "group": "last-30-days", "lat": 6.281744055078036, "lon": 83.54590361835652, "alt_km": 407.5375929101938, "timestamp": "2025-12-20T07:33:49.512027+00:00", "meta": {"OBJECT_NAME": "STARLINK-35941", "OBJECT_ID": "2025-268AC", "EPOCH": "2025-12-19T16:04:41.529504", "MEAN_MOTION": 15.51345807, "ECCENTRICITY": 0.00013763, "INCLINATION": 42.9996, "RA_OF_ASC_NODE": 80.5444, "ARG_OF_PERICENTER": 334.8074, "MEAN_ANOMALY": 25.2719, "EPHEMERIS_TYPE": 0, "CLASSIFICATION_TYPE": "U", "NORAD_CAT_ID": 66583, "ELEMENT_SET_NO": 999, "REV_AT_EPOCH": 570, "BSTAR": 0.01517546, "MEAN_MOTION_DOT": 0.01004457, "MEAN_MOTION_DDOT": 0}, "tle": {"line1": "1 66583U 25268AC  25353.66992511  .01004457  00000+0  15175-1 0  9998", "line2": "2 66583  42.9996  80.5444 0001376 334.8074  25.2719 15.51345807  5707"}}, "geometry": {"type": "Point", "coordinates": [83.54590361835652, 6.281744055078036]}}, {"type": "Feature", "properties": {"norad_id": 66584, "name": "STARLINK-35939", "group": "last-30-days", "lat": 5.755631594110981, "lon": 82.9727041489479, "alt_km": 414.9609815576614, "timestamp": "2025-12-20T07:33:49.512037+00:00", "meta": {"OBJECT_NAME": "STARLINK-35939", "OBJECT_ID": "2025-268AD", "EPOCH": "2025-12-19T14:31:27.869088", "MEAN_MOTION": 15.50751867, "ECCENTRICITY": 0.0002615, "INCLINATION": 42.9992, "RA_OF_ASC_NODE": 80.9182, "ARG_OF_PERICENTER": 187.8218, "MEAN_ANOMALY": 172.2602, "EPHEMERIS_TYPE": 0, "CLASSIFICATION_TYPE": "U", "NORAD_CAT_ID": 66584, "ELEMENT_SET_NO": 999, "REV_AT_EPOCH": 569, "BSTAR": 0.0012867, "MEAN_MOTION_DOT": 0.00076356, "MEAN_MOTION_DDOT": 0}, "tle": {"line1": "1 66584U 25268AD  25353.60518367  .00076356  00000+0  12867-2 0  9998", "line2": "2 66584  42.9992  80.9182 0002615 187.8218 172.2602 15.50751867  5698"}}, "geometry": {"type": "Point", "coordinates": [82.9727041489479, 5.755631594110981]}}, {"type": "Feature", "properties": {"norad_id": 66585, "name": "STARLINK-35963", "group": "last-30-days", "lat": 7.563779042966532, "lon": 84.9494803799938, "alt_km": 414.6199235701206, "timestamp": "2025-12-20T07:33:49.512048+00:00", "meta": {"OBJECT_NAME": "STARLINK-35963", "OBJECT_ID": "2025-268AE", "EPOCH": "2025-12-19T16:03:40.627008", "MEAN_MOTION": 15.50992135, "ECCENTRICITY": 0.00041633, "INCLINATION": 42.9984, "RA_OF_ASC_NODE": 80.5387, "ARG_OF_PERICENTER": 160.1889, "MEAN_ANOMALY": 199.9133, "EPHEMERIS_TYPE": 0, "CLASSIFICATION_TYPE": "U", "NORAD_CAT_ID": 66585, "ELEMENT_SET_NO": 999, "REV_AT_EPOCH": 570, "BSTAR": 0.0019989938, "MEAN_MOTION_DOT": 0.00120542, "MEAN_MOTION_DDOT": 0}, "tle": {"line1": "1 66585U 25268AE  25353.66922022  .00120542  00000+0  19990-2 0  9993", "line2": "2 66585  42.9984  80.5387 0004163 160.1889 199.9133 15.50992135  5703"}}, "geometry": {"type": "Point", "coordinates": [84.9494803799938, 7.563779042966532]}}, {"type": "Feature", "properties": {"norad_id": 66586, "name": "TJS-21", "group": "last-30-days", "lat": 55.079843762565844, "lon": -152.24430859218148, "alt_km": 31749.68640795082, "timestamp": "2025-12-20T07:33:49.512061+00:00", "meta": {"OBJECT_NAME": "TJS-21", "OBJECT_ID": "2025-269A", "EPOCH": "2025-12-18T16:58:10.473888", "MEAN_MOTION": 2.00580748, "ECCENTRICITY": 0.6806869, "INCLINATION": 63.2733, "RA_OF_ASC_NODE": 161.7218, "ARG_OF_PERICENTER": 269.7428, "MEAN_ANOMALY": 18.6663, "EPHEMERIS_TYPE": 0, "CLASSIFICATION_TYPE": "U", "NORAD_CAT_ID": 66586, "ELEMENT_SET_NO": 999, "REV_AT_EPOCH": 55, "BSTAR": -0.059507049, "MEAN_MOTION_DOT": 1.084e-05, "MEAN_MOTION_DDOT": 0}, "tle": {"line1": "1 66586U 25269A   25352.70706567  .00001084  00000+0 -59507-1 0  9990", "line2": "2 66586  63.2733 161.7218 6806869 269.7428  18.6663  2.00580748   558"}}, "geometry": {"type": "Point", "coordinates": [-152.24430859218148, 55.079843762565844]}}, {"type": "Feature", "properties": {"norad_id": 66587, "name": "CZ-3B R/B", "group": "last-30-days", "lat": 34.653697701966024, "lon": -158.5260807706617, "alt_km": 39308.6766128229, "timestamp": "2025-12-20T07:33:49.512075+00:00", "meta": {"OBJECT_NAME": "CZ-3B R/B", "OBJECT_ID": "2025-269B", "EPOCH": "2025-12-18T04:21:45.908640", "MEAN_MOTION": 2.0405465, "ECCENTRICITY": 0.75166459, "INCLINATION": 51.3412, "RA_OF_ASC_NODE": 168.3764, "ARG_OF_PERICENTER": 229.6756, "MEAN_ANOMALY": 36.1575, "EPHEMERIS_TYPE": 0, "CLASSIFICATION_TYPE": "U", "NORAD_CAT_ID": 66587, "ELEMENT_SET_NO": 999, "REV_AT_EPOCH": 56, "BSTAR": 0.00058948144, "MEAN_MOTION_DOT": 0.0008861, "MEAN_MOTION_DDOT": -1.447425e-06}, "tle": {"line1": "1 66587U 25269B   25352.18178135  .00088610 -14474-5  58948-3 0  9993", "line2": "2 66587  51.3412 168.3764 7516645 229.6756  36.1575  2.04054650   560"}}, "geometry": {"type": "Point", "coordinates": [-158.5260807706617, 34.653697701966024]}}, {"type": "Feature", "properties": {"norad_id": 66588, "name": "STARLINK-36076", "group": "last-30-days", "lat": -26.416733901584156, "lon": 116.90940472707196, "alt_km": 445.4725054809105, "timestamp": "2025-12-20T07:33:49.512087+00:00", "meta": {"OBJECT_NAME": "STARLINK-36076", "OBJECT_ID": "2025-270A", "EPOCH": "2025-12-19T19:17:34.645344", "MEAN_MOTION": 15.4070464, "ECCENTRICITY": 0.00021308, "INCLINATION": 42.9989, "RA_OF_ASC_NODE": 152.0729, "ARG_OF_PERICENTER": 265.6518, "MEAN_ANOMALY": 94.4095, "EPHEMERIS_TYPE": 0, "CLASSIFICATION_TYPE": "U", "NORAD_CAT_ID": 66588, "ELEMENT_SET_NO": 999, "REV_AT_EPOCH": 543, "BSTAR": 0.00072750808, "MEAN_MOTION_DOT": 0.00030212, "MEAN_MOTION_DDOT": 0}, "tle": {"line1": "1 66588U 25270A   25353.80387321  .00030212  00000+0  72751-3 0  9991", "line2": "2 66588  42.9989 152.0729 0002130 265.6518  94.4095 15.40704640  5435"}}, "geometry": {"type": "Point", "coordinates": [116.90940472707196, -26.416733901584156]}}, {"type": "Feature", "properties": {"norad_id": 66589, "name": "STARLINK-35447", "group": "last-30-days", "lat": 35.6546522922405, "lon": -160.77254748986792, "alt_km": 438.9464553773405, "timestamp": "2025-12-20T07:33:49.512101+00:00", "meta": {"OBJECT_NAME": "STARLINK-35447", "OBJECT_ID": "2025-270B", "EPOCH": "2025-12-19T22:00:01.999584", "MEAN_MOTION": 15.40657902, "ECCENTRICITY": 0.0001419, "INCLINATION": 42.9997, "RA_OF_ASC_NODE": 151.1844, "ARG_OF_PERICENTER": 284.6661, "MEAN_ANOMALY": 81.4126, "EPHEMERIS_TYPE": 0, "CLASSIFICATION_TYPE": "U", "NORAD_CAT_ID": 66589, "ELEMENT_SET_NO": 999, "REV_AT_EPOCH": 566, "BSTAR": 0.0018464789, "MEAN_MOTION_DOT": 0.00077507, "MEAN_MOTION_DDOT": 0}, "tle": {"line1": "1 66589U 25270B   25353.91668981  .00077507  00000+0  18465-2 0  9997", "line2": "2 66589  42.9997 151.1844 0001419 284.6661  81.4126 15.40657902  5666"}}, "geometry": {"type": "Point", "coordinates": [-160.77254748986792, 35.6546522922405]}}, {"type": "Feature", "properties": {"norad_id": 66590, "name": "STARLINK-35429", "group": "last-30-days", "lat": 22.457124636932537, "lon": -57.65483556620756, "alt_km": 441.2833144320957, "timestamp": "2025-12-20T07:33:49.512112+00:00", "meta": {"OBJECT_NAME": "STARLINK-35429", "OBJECT_ID": "2025-270C", "EPOCH": "2025-12-19T22:00:01.999584", "MEAN_MOTION": 15.40657215, "ECCENTRICITY": 0.00016282, "INCLINATION": 43, "RA_OF_ASC_NODE": 150.9734, "ARG_OF_PERICENTER": 283.8311, "MEAN_ANOMALY": 169.3214, "EPHEMERIS_TYPE": 0, "CLASSIFICATION_TYPE": "U", "NORAD_CAT_ID": 66590, "ELEMENT_SET_NO": 999, "REV_AT_EPOCH": 566, "BSTAR": 0.0019122458, "MEAN_MOTION_DOT": 0.00080307, "MEAN_MOTION_DDOT": 0}, "tle": {"line1": "1 66590U 25270C   25353.91668981  .00080307  00000+0  19122-2 0  9992", "line2": "2 66590  43.0000 150.9734 0001628 283.8311 169.3214 15.40657215  5666"}}, "geometry": {"type": "Point", "coordinates": [-57.65483556620756, 22.457124636932537]}}, {"type": "Feature", "properties": {"norad_id": 66591, "name": "STARLINK-36058", "group": "last-30-days", "lat": -31.4748970176507, "lon": 9.542066192533893, "alt_km": 438.00190502206806, "timestamp": "2025-12-20T07:33:49.512123+00:00", "meta": {"OBJECT_NAME": "STARLINK-36058", "OBJECT_ID": "2025-270D", "EPOCH": "2025-12-19T22:00:01.999584", "MEAN_MOTION": 15.45243519, "ECCENTRICITY": 0.00012773, "INCLINATION": 42.9999, "RA_OF_ASC_NODE": 150.7822, "ARG_OF_PERICENTER": 287.2285, "MEAN_ANOMALY": 244.718, "EPHEMERIS_TYPE": 0, "CLASSIFICATION_TYPE": "U", "NORAD_CAT_ID": 66591, "ELEMENT_SET_NO": 999, "REV_AT_EPOCH": 555, "BSTAR": -0.046448899, "MEAN_MOTION_DOT": -0.02015001, "MEAN_MOTION_DDOT": 0}, "tle": {"line1": "1 66591U 25270D   25353.91668981 -.02015001  00000+0 -46449-1 0  9997", "line2": "2 66591  42.9999 150.7822 0001277 287.2285 244.7180 15.45243519  5557"}}, "geometry": {"type": "Point", "coordinates": [9.542066192533893, -31.4748970176507]}}, {"type": "Feature", "properties": {"norad_id": 66592, "name": "STARLINK-36066", "group": "last-30-days", "lat": 6.269591615853009, "lon": 155.77456297275464, "alt_km": 442.6986514848559, "timestamp": "2025-12-20T07:33:49.512134+00:00", "meta": {"OBJECT_NAME": "STARLINK-36066", "OBJECT_ID": "2025-270E", "EPOCH": "2025-12-19T03:31:08.236704", "MEAN_MOTION": 15.40718174, "ECCENTRICITY": 0.00012951, "INCLINATION": 42.9987, "RA_OF_ASC_NODE": 155.7395, "ARG_OF_PERICENTER": 272.062, "MEAN_ANOMALY": 88.0088, "EPHEMERIS_TYPE": 0, "CLASSIFICATION_TYPE": "U", "NORAD_CAT_ID": 66592, "ELEMENT_SET_NO": 999, "REV_AT_EPOCH": 523, "BSTAR": 0.00069686524, "MEAN_MOTION_DOT": 0.00028934, "MEAN_MOTION_DDOT": 0}, "tle": {"line1": "1 66592U 25270E   25353.14662311  .00028934  00000+0  69687-3 0  9990", "line2": "2 66592  42.9987 155.7395 0001295 272.0620  88.0088 15.40718174  5230"}}, "geometry": {"type": "Point", "coordinates": [155.77456297275464, 6.269591615853009]}}]}